FENGYUN 1C DEB          
1 35177U 99025DNH 17344.39673819  .00000522  00000-0  28890-3 0  9992
2 35177  98.8612  52.4836 0043726 176.8853 244.4937 14.15215866526877
